GSAT-18                 
1 41793U 16060A   26157.08795009 -.00000064  00000+0  00000+0 0  9995
2 41793   0.0360 111.1480 0005875 318.7722 290.2494  1.00271545 35414
SKY MUSTER 2 (NBN1B)    
1 41794U 16060B   26156.73447477 -.00000231  00000+0  00000+0 0  9996
2 41794   0.0153 313.2762 0001722 120.4206 229.6803  1.00271849 35401
HIMAWARI-9              
1 41836U 16064A   26156.94759707 -.00000261  00000+0  00000+0 0  9995
2 41836   0.0408 167.8179 0000965 298.9963 269.4538  1.00274382 35092
SHIJIAN-17 (SJ-17)      
1 41838U 16065A   26156.57470734 -.00000008  00000+0  00000+0 0  9996
2 41838   5.7229  72.7439 0002067  20.6340 260.7763  0.99853894 35085
GOES 16                 
1 41866U 16071A   26157.11285251 -.00000078  00000+0  00000+0 0  9990
2 41866   0.3116  85.6375 0000579 318.2771 146.5885  1.00271023 34990
TIANLIAN 1-04           
1 41869U 16072A   26157.23990741  .00000044  00000+0  00000+0 0  9996
2 41869   0.8410  82.9623 0041760  89.7869 345.1148  1.00268895 35191
WGS F8 (USA 272)        
1 41879U 16075A   26156.87805159 -.00000190  00000+0  00000+0 0  9990
2 41879   0.0061 349.0363 0000310 351.0974  20.0920  1.00271120 34700
FENGYUN 4A              
1 41882U 16077A   26157.30065569 -.00000343  00000+0  00000+0 0  9998
2 41882   2.2948  80.4019 0008189 151.6843 254.6225  1.00275378 34822
ECHOSTAR 19             
1 41893U 16079A   26156.61522247 -.00000126  00000+0  00000+0 0  9995
2 41893   0.0181 357.4978 0001576  87.3351 293.6079  1.00272828 34582
JCSAT-110A (JCSAT-15)   
1 41903U 16082A   26156.68140878 -.00000338  00000+0  00000+0 0  9999
2 41903   0.0170 334.4057 0000863 128.1044 146.9734  1.00270080 34649
STAR ONE D1             
1 41904U 16082B   26157.18656016 -.00000198  00000+0  00000+0 0  9996
2 41904   0.0124  35.2963 0002091  52.9414 149.5187  1.00269785 34664
TJS-2                   
1 41911U 17001A   26157.14672512  .00000006  00000+0  00000+0 0  9998
2 41911   0.8042  85.4823 0000753  15.0267 273.4188  1.00272557 34603
SBIRS GEO-4 (USA 273)   
1 41937U 17004A   26157.15739169  .00000136  00000+0  00000+0 0  9996
2 41937   2.2214  42.9704 0002334  28.2546 260.9223  1.00272460 34487
HISPASAT 36W-1          
1 41942U 17006A   26156.41350944 -.00000232  00000+0  00000+0 0  9990
2 41942   0.0061 256.6088 0001013 170.5309 299.5722  1.00268599 34120
TELKOM 3S               
1 41944U 17007A   26157.01434734 -.00000350  00000+0  00000+0 0  9991
2 41944   0.0154 288.8446 0002423 147.3375 301.4413  1.00271943 34027
INTELSAT 32E (IS-32E)   
1 41945U 17007B   26156.76854095 -.00000256  00000+0  00000+0 0  9994
2 41945   0.0178 344.6873 0000563   4.7820 138.2227  1.00270705 34117
ECHOSTAR 23             
1 42070U 17014A   26155.89953811 -.00000045  00000+0  00000+0 0  9997
2 42070   0.0176   5.8946 0001859  69.5571  31.8276  1.00271139 33802
WGS F9 (USA 275)        
1 42075U 17016A   26156.77469432 -.00000084  00000+0  00000+0 0  9996
2 42075   0.0091 283.8133 0000499 146.4858  90.8043  1.00271562 33785
SES-10                  
1 42432U 17017A   26156.54993972 -.00000260  00000+0  00000+0 0  9996
2 42432   0.0238  37.3238 0003012  46.7131 301.0313  1.00272878 33635
CHINASAT 16 (SJ-13)     
1 42662U 17018A   26156.79900359 -.00000340  00000+0  00000+0 0  9995
2 42662   0.1016  92.2536 0003774 134.9826  65.1567  1.00273863 33636
KOREASAT 7              
1 42691U 17023A   26157.03239341 -.00000349  00000+0  00000+0 0  9996
2 42691   0.0200 334.8771 0000557  67.5662 339.5562  1.00273134 33255
SGDC                    
1 42692U 17023B   26156.50265406 -.00000237  00000+0  00000+0 0  9995
2 42692   0.0184  43.4409 0003109  42.0956 274.5046  1.00270223 33282
GSAT-9                  
1 42695U 17024A   26157.01027398 -.00000274  00000+0  00000+0 0  9993
2 42695   0.0162 288.9457 0002520 141.2835 285.2349  1.00273757 33183
INMARSAT 5-F4           
1 42698U 17025A   26156.97683536  .00000088  00000+0  00000+0 0  9995
2 42698   0.0177 346.7140 0000320  43.8020 272.0294  1.00270107 33160
SES-15                  
1 42709U 17026A   26157.14003043  .00000073  00000+0  00000+0 0  9992
2 42709   0.0200 331.6764 0000635  92.9882 111.1538  1.00270053  7328
QZS-2 (MICHIBIKI-2)     
1 42738U 17028A   26156.52533119 -.00000153  00000+0  00000+0 0  9999
2 42738  39.4451 243.3265 0760589 269.1343  71.7999  1.00287038  7503
VIASAT-2                
1 42740U 17029A   26156.54933304 -.00000253  00000+0  00000+0 0  9996
2 42740   0.0180 291.6831 0000406 147.0218 303.1536  1.00271951 33082
EUTELSAT 172B           
1 42741U 17029B   26156.57010942  .00000007  00000+0  00000+0 0  9990
2 42741   0.0118  87.6965 0000127  37.1820 146.3676  1.00270387 33627
GSAT-19                 
1 42747U 17031A   26157.14308509  .00000138  00000+0  00000+0 0  9997
2 42747   0.1044  91.1657 0007058 348.9318 273.8442  1.00270656 33036
ECHOSTAR 21             
1 42749U 17032A   26157.15739169  .00000077  00000+0  00000+0 0  9993
2 42749   1.7719 354.9557 0002419  83.6035 242.9566  1.00270583 32984
BULGARIASAT-1           
1 42801U 17038A   26156.27843358  .00000024  00000+0  00000+0 0  9998
2 42801   0.0637  89.0627 0003787 356.0870 270.7040  1.00276476 32726
