OBJECT_NAME,OBJECT_ID,EPOCH,MEAN_MOTION,ECCENTRICITY,INCLINATION,RA_OF_ASC_NODE,ARG_OF_PERICENTER,MEAN_ANOMALY,EPHEMERIS_TYPE,CLASSIFICATION_TYPE,NORAD_CAT_ID,ELEMENT_SET_NO,REV_AT_EPOCH,BSTAR,MEAN_MOTION_DOT,MEAN_MOTION_DDOT
GSAT-18,2016-060A,2026-06-06T02:06:38.887776,1.00271545,.00058759,0.0360,111.1480,318.7722,290.2494,0,U,41793,999,3541,0,-.64E-6,0
SKY MUSTER 2 (NBN1B),2016-060B,2026-06-05T17:37:38.620128,1.00271849,.00017225,0.0153,313.2762,120.4206,229.6803,0,U,41794,999,3540,0,-.231E-5,0
HIMAWARI-9,2016-064A,2026-06-05T22:44:32.386848,1.00274382,.00009658,0.0408,167.8179,298.9963,269.4538,0,U,41836,999,3509,0,-.261E-5,0
SHIJIAN-17 (SJ-17),2016-065A,2026-06-05T13:47:34.714176,0.99853894,.0002067,5.7229,72.7439,20.6340,260.7763,0,U,41838,999,3508,0,-.8E-7,0
GOES 16,2016-071A,2026-06-06T02:42:30.456864,1.00271023,.00005792,0.3116,85.6375,318.2771,146.5885,0,U,41866,999,3499,0,-.78E-6,0
TIANLIAN 1-04,2016-072A,2026-06-06T05:45:28.000224,1.00268895,.004176,0.8410,82.9623,89.7869,345.1148,0,U,41869,999,3519,0,.44E-6,0
WGS F8 (USA 272),2016-075A,2026-06-05T21:04:23.657376,1.00271120,.00003101,0.0061,349.0363,351.0974,20.0920,0,U,41879,999,3470,0,-.19E-5,0
FENGYUN 4A,2016-077A,2026-06-06T07:12:56.651616,1.00275378,.00081894,2.2948,80.4019,151.6843,254.6225,0,U,41882,999,3482,0,-.343E-5,0
ECHOSTAR 19,2016-079A,2026-06-05T14:45:55.221408,1.00272828,.00015766,0.0181,357.4978,87.3351,293.6079,0,U,41893,999,3458,0,-.126E-5,0
JCSAT-110A (JCSAT-15),2016-082A,2026-06-05T16:21:13.718592,1.00270080,.00008633,0.0170,334.4057,128.1044,146.9734,0,U,41903,999,3464,0,-.338E-5,0
STAR ONE D1,2016-082B,2026-06-06T04:28:38.797824,1.00269785,.00020917,0.0124,35.2963,52.9414,149.5187,0,U,41904,999,3466,0,-.198E-5,0
TJS-2,2017-001A,2026-06-06T03:31:17.050368,1.00272557,.00007538,0.8042,85.4823,15.0267,273.4188,0,U,41911,999,3460,0,.6E-7,0
SBIRS GEO-4 (USA 273),2017-004A,2026-06-06T03:46:38.642016,1.00272460,.00023343,2.2214,42.9704,28.2546,260.9223,0,U,41937,999,3448,0,.136E-5,0
HISPASAT 36W-1,2017-006A,2026-06-05T09:55:27.215616,1.00268599,.00010139,0.0061,256.6088,170.5309,299.5722,0,U,41942,999,3412,0,-.232E-5,0
TELKOM 3S,2017-007A,2026-06-06T00:20:39.610176,1.00271943,.00024239,0.0154,288.8446,147.3375,301.4413,0,U,41944,999,3402,0,-.35E-5,0
INTELSAT 32E (IS-32E),2017-007B,2026-06-05T18:26:41.938080,1.00270705,.0000563,0.0178,344.6873,4.7820,138.2227,0,U,41945,999,3411,0,-.256E-5,0
ECHOSTAR 23,2017-014A,2026-06-04T21:35:20.092704,1.00271139,.00018595,0.0176,5.8946,69.5571,31.8276,0,U,42070,999,3380,0,-.45E-6,0
WGS F9 (USA 275),2017-016A,2026-06-05T18:35:33.589248,1.00271562,.00004995,0.0091,283.8133,146.4858,90.8043,0,U,42075,999,3378,0,-.84E-6,0
SES-10,2017-017A,2026-06-05T13:11:54.791808,1.00272878,.00030122,0.0238,37.3238,46.7131,301.0313,0,U,42432,999,3363,0,-.26E-5,0
CHINASAT 16 (SJ-13),2017-018A,2026-06-05T19:10:33.910176,1.00273863,.00037744,0.1016,92.2536,134.9826,65.1567,0,U,42662,999,3363,0,-.34E-5,0
KOREASAT 7,2017-023A,2026-06-06T00:46:38.790624,1.00273134,.00005572,0.0200,334.8771,67.5662,339.5562,0,U,42691,999,3325,0,-.349E-5,0
SGDC,2017-023B,2026-06-05T12:03:49.310784,1.00270223,.00031095,0.0184,43.4409,42.0956,274.5046,0,U,42692,999,3328,0,-.237E-5,0
GSAT-9,2017-024A,2026-06-06T00:14:47.671872,1.00273757,.00025209,0.0162,288.9457,141.2835,285.2349,0,U,42695,999,3318,0,-.274E-5,0
INMARSAT 5-F4,2017-025A,2026-06-05T23:26:38.575104,1.00270107,.00003203,0.0177,346.7140,43.8020,272.0294,0,U,42698,999,3316,0,.88E-6,0
SES-15,2017-026A,2026-06-06T03:21:38.629152,1.00270053,.00006356,0.0200,331.6764,92.9882,111.1538,0,U,42709,999,732,0,.73E-6,0
QZS-2 (MICHIBIKI-2),2017-028A,2026-06-05T12:36:28.614816,1.00287038,.07605892,39.4451,243.3265,269.1343,71.7999,0,U,42738,999,750,0,-.153E-5,0
VIASAT-2,2017-029A,2026-06-05T13:11:02.374656,1.00271951,.00004065,0.0180,291.6831,147.0218,303.1536,0,U,42740,999,3308,0,-.253E-5,0
EUTELSAT 172B,2017-029B,2026-06-05T13:40:57.453888,1.00270387,.00001273,0.0118,87.6965,37.1820,146.3676,0,U,42741,999,3362,0,.7E-7,0
GSAT-19,2017-031A,2026-06-06T03:26:02.551776,1.00270656,.0007058,0.1044,91.1657,348.9318,273.8442,0,U,42747,999,3303,0,.138E-5,0
ECHOSTAR 21,2017-032A,2026-06-06T03:46:38.642016,1.00270583,.00024194,1.7719,354.9557,83.6035,242.9566,0,U,42749,999,3298,0,.77E-6,0
BULGARIASAT-1,2017-038A,2026-06-05T06:40:56.661312,1.00276476,.00037876,0.0637,89.0627,356.0870,270.7040,0,U,42801,999,3272,0,.24E-6,0
